ISS (ZARYA)             
1 25544U 98067A   26114.65157122  .00009395  00000+0  17883-3 0  9998
2 25544  51.6320 205.0750 0006889 346.1357  13.9441 15.48932066563457
CSS (TIANHE)            
1 48274U 21035A   26114.82012301  .00024940  00000+0  27063-3 0  9996
2 48274  41.4671 287.0016 0006791 267.9229  92.0833 15.62898540284821
HTV-X1                  
1 66174U 25241A   26112.99220554  .00004413  00000+0  14900-3 0  9994
2 66174  51.6353 219.4042 0007821 344.1053  15.9682 15.32728944 27734
SZ-21 MODULE            
1 66515U 25246C   26114.73427522  .00034872  00000+0  25922-3 0  9994
2 66515  41.4730 279.1403 0004099 320.8652  39.1894 15.72087630 25312
POISK                   
1 36086U 09060A   26114.65157122  .00009395  00000+0  17883-3 0  9996
2 36086  51.6320 205.0750 0006889 346.1357  13.9441 15.48932066563449
ISS (NAUKA)             
1 49044U 21066A   26114.65157122  .00009395  00000+0  17883-3 0  9994
2 49044  51.6320 205.0750 0006889 346.1357  13.9441 15.48932066563481
FREGAT DEB              
1 49271U 11037PF  26114.43776689  .00004161  00000+0  64264-2 0  9994
2 49271  51.6464 163.3683 0941236 164.2676 198.9679 12.41042082218372
CSS (WENTIAN)           
1 53239U 22085A   26113.54209464  .00023003  00000+0  25056-3 0  9994
2 53239  41.4673 294.8032 0006745 259.8887 100.1192 15.62838201283133
CSS (MENGTIAN)          
1 54216U 22143A   26114.82012301  .00024940  00000+0  27063-3 0  9990
2 54216  41.4671 287.0016 0006791 267.9229  92.0833 15.62898540284857
TIANZHOU-9              
1 64786U 25149A   26114.82012301  .00024940  00000+0  27063-3 0  9992
2 64786  41.4671 287.0016 0006791 267.9229  92.0833 15.62898540284861
HRC MONOBLOCK CAMERA    
1 66052U 98067XR  26114.49169880  .00049639  00000+0  45578-3 0  9990
2 66052  51.6263 193.4917 0004715 328.8772  31.1944 15.67197846 29560
SHENZHOU-22             
1 66645U 25272A   26114.82012301  .00024940  00000+0  27063-3 0  9995
2 66645  41.4671 287.0016 0006791 267.9229  92.0833 15.62898540284878
SOYUZ-MS 28             
1 66664U 25275A   26114.65157122  .00009395  00000+0  17883-3 0  9997
2 66664  51.6320 205.0750 0006889 346.1357  13.9441 15.48932066563725
DUPLEX                  
1 66906U 98067XS  26114.52031803  .00026585  00000+0  33941-3 0  9991
2 66906  51.6276 199.6973 0004669 337.6923  22.3866 15.59064037 22278
ISS OBJECT XT           
1 66907U 98067XT  26114.58384734  .00440305  86756-4  12224-2 0  9999
2 66907  51.6177 188.0043 0012366 354.5534   5.5337 15.93083615 22433
ISS OBJECT XU           
1 66908U 98067XU  26114.57271664  .00473009  99700-4  12668-2 0  9998
2 66908  51.6199 187.9251 0012156 352.7751   7.3079 15.93759950 22430
ISS OBJECT XW           
1 66910U 98067XW  26114.45113545  .00318334  00000+0  11119-2 0  9990
2 66910  51.6161 189.3682 0011389 349.3490  10.7272 15.87821159 22409
