[{"OBJECT_NAME":"ISS (ZARYA)","OBJECT_ID":"1998-067A","EPOCH":"2026-04-24T15:38:15.753408","MEAN_MOTION":15.48932066,"ECCENTRICITY":0.0006889,"INCLINATION":51.632,"RA_OF_ASC_NODE":205.075,"ARG_OF_PERICENTER":346.1357,"MEAN_ANOMALY":13.9441,"EPHEMERIS_TYPE":0,"CLASSIFICATION_TYPE":"U","NORAD_CAT_ID":25544,"ELEMENT_SET_NO":999,"REV_AT_EPOCH":56345,"BSTAR":0.00017883,"MEAN_MOTION_DOT":9.395e-5,"MEAN_MOTION_DDOT":0},{"OBJECT_NAME":"POISK","OBJECT_ID":"2009-060A","EPOCH":"2026-04-24T15:38:15.753408","MEAN_MOTION":15.48932066,"ECCENTRICITY":0.0006889,"INCLINATION":51.632,"RA_OF_ASC_NODE":205.075,"ARG_OF_PERICENTER":346.1357,"MEAN_ANOMALY":13.9441,"EPHEMERIS_TYPE":0,"CLASSIFICATION_TYPE":"U","NORAD_CAT_ID":36086,"ELEMENT_SET_NO":999,"REV_AT_EPOCH":56344,"BSTAR":0.00017883,"MEAN_MOTION_DOT":9.395e-5,"MEAN_MOTION_DDOT":0},{"OBJECT_NAME":"CSS (TIANHE)","OBJECT_ID":"2021-035A","EPOCH":"2026-04-24T19:40:58.628064","MEAN_MOTION":15.6289854,"ECCENTRICITY":0.0006791,"INCLINATION":41.4671,"RA_OF_ASC_NODE":287.0016,"ARG_OF_PERICENTER":267.9229,"MEAN_ANOMALY":92.0833,"EPHEMERIS_TYPE":0,"CLASSIFICATION_TYPE":"U","NORAD_CAT_ID":48274,"ELEMENT_SET_NO":999,"REV_AT_EPOCH":28482,"BSTAR":0.00027063,"MEAN_MOTION_DOT":0.0002494,"MEAN_MOTION_DDOT":0},{"OBJECT_NAME":"ISS (NAUKA)","OBJECT_ID":"2021-066A","EPOCH":"2026-04-24T15:38:15.753408","MEAN_MOTION":15.48932066,"ECCENTRICITY":0.0006889,"INCLINATION":51.632,"RA_OF_ASC_NODE":205.075,"ARG_OF_PERICENTER":346.1357,"MEAN_ANOMALY":13.9441,"EPHEMERIS_TYPE":0,"CLASSIFICATION_TYPE":"U","NORAD_CAT_ID":49044,"ELEMENT_SET_NO":999,"REV_AT_EPOCH":56348,"BSTAR":0.00017883,"MEAN_MOTION_DOT":9.395e-5,"MEAN_MOTION_DDOT":0},{"OBJECT_NAME":"FREGAT DEB","OBJECT_ID":"2011-037PF","EPOCH":"2026-04-24T10:30:23.059296","MEAN_MOTION":12.41042082,"ECCENTRICITY":0.0941236,"INCLINATION":51.6464,"RA_OF_ASC_NODE":163.3683,"ARG_OF_PERICENTER":164.2676,"MEAN_ANOMALY":198.9679,"EPHEMERIS_TYPE":0,"CLASSIFICATION_TYPE":"U","NORAD_CAT_ID":49271,"ELEMENT_SET_NO":999,"REV_AT_EPOCH":21837,"BSTAR":0.0064264,"MEAN_MOTION_DOT":4.161e-5,"MEAN_MOTION_DDOT":0},{"OBJECT_NAME":"CSS (WENTIAN)","OBJECT_ID":"2022-085A","EPOCH":"2026-04-23T13:00:36.976896","MEAN_MOTION":15.62838201,"ECCENTRICITY":0.00067454,"INCLINATION":41.4673,"RA_OF_ASC_NODE":294.8032,"ARG_OF_PERICENTER":259.8887,"MEAN_ANOMALY":100.1192,"EPHEMERIS_TYPE":0,"CLASSIFICATION_TYPE":"U","NORAD_CAT_ID":53239,"ELEMENT_SET_NO":999,"REV_AT_EPOCH":28313,"BSTAR":0.00025055873,"MEAN_MOTION_DOT":0.00023003,"MEAN_MOTION_DDOT":0},{"OBJECT_NAME":"CSS (MENGTIAN)","OBJECT_ID":"2022-143A","EPOCH":"2026-04-24T19:40:58.628064","MEAN_MOTION":15.6289854,"ECCENTRICITY":0.0006791,"INCLINATION":41.4671,"RA_OF_ASC_NODE":287.0016,"ARG_OF_PERICENTER":267.9229,"MEAN_ANOMALY":92.0833,"EPHEMERIS_TYPE":0,"CLASSIFICATION_TYPE":"U","NORAD_CAT_ID":54216,"ELEMENT_SET_NO":999,"REV_AT_EPOCH":28485,"BSTAR":0.00027063,"MEAN_MOTION_DOT":0.0002494,"MEAN_MOTION_DDOT":0},{"OBJECT_NAME":"TIANZHOU-9","OBJECT_ID":"2025-149A","EPOCH":"2026-04-24T19:40:58.628064","MEAN_MOTION":15.6289854,"ECCENTRICITY":0.0006791,"INCLINATION":41.4671,"RA_OF_ASC_NODE":287.0016,"ARG_OF_PERICENTER":267.9229,"MEAN_ANOMALY":92.0833,"EPHEMERIS_TYPE":0,"CLASSIFICATION_TYPE":"U","NORAD_CAT_ID":64786,"ELEMENT_SET_NO":999,"REV_AT_EPOCH":28486,"BSTAR":0.00027063,"MEAN_MOTION_DOT":0.0002494,"MEAN_MOTION_DDOT":0},{"OBJECT_NAME":"HRC MONOBLOCK CAMERA","OBJECT_ID":"1998-067XR","EPOCH":"2026-04-24T11:48:02.776320","MEAN_MOTION":15.67197846,"ECCENTRICITY":0.0004715,"INCLINATION":51.6263,"RA_OF_ASC_NODE":193.4917,"ARG_OF_PERICENTER":328.8772,"MEAN_ANOMALY":31.1944,"EPHEMERIS_TYPE":0,"CLASSIFICATION_TYPE":"U","NORAD_CAT_ID":66052,"ELEMENT_SET_NO":999,"REV_AT_EPOCH":2956,"BSTAR":0.00045578,"MEAN_MOTION_DOT":0.00049639,"MEAN_MOTION_DDOT":0},{"OBJECT_NAME":"HTV-X1","OBJECT_ID":"2025-241A","EPOCH":"2026-04-22T23:48:46.558656","MEAN_MOTION":15.32728944,"ECCENTRICITY":0.00078219,"INCLINATION":51.6353,"RA_OF_ASC_NODE":219.4042,"ARG_OF_PERICENTER":344.1053,"MEAN_ANOMALY":15.9682,"EPHEMERIS_TYPE":0,"CLASSIFICATION_TYPE":"U","NORAD_CAT_ID":66174,"ELEMENT_SET_NO":999,"REV_AT_EPOCH":2773,"BSTAR":0.00014900059,"MEAN_MOTION_DOT":4.413e-5,"MEAN_MOTION_DDOT":0},{"OBJECT_NAME":"SZ-21 MODULE","OBJECT_ID":"2025-246C","EPOCH":"2026-04-24T17:37:21.379008","MEAN_MOTION":15.7208763,"ECCENTRICITY":0.0004099,"INCLINATION":41.473,"RA_OF_ASC_NODE":279.1403,"ARG_OF_PERICENTER":320.8652,"MEAN_ANOMALY":39.1894,"EPHEMERIS_TYPE":0,"CLASSIFICATION_TYPE":"U","NORAD_CAT_ID":66515,"ELEMENT_SET_NO":999,"REV_AT_EPOCH":2531,"BSTAR":0.00025922,"MEAN_MOTION_DOT":0.00034872,"MEAN_MOTION_DDOT":0},{"OBJECT_NAME":"SHENZHOU-22","OBJECT_ID":"2025-272A","EPOCH":"2026-04-24T19:40:58.628064","MEAN_MOTION":15.6289854,"ECCENTRICITY":0.0006791,"INCLINATION":41.4671,"RA_OF_ASC_NODE":287.0016,"ARG_OF_PERICENTER":267.9229,"MEAN_ANOMALY":92.0833,"EPHEMERIS_TYPE":0,"CLASSIFICATION_TYPE":"U","NORAD_CAT_ID":66645,"ELEMENT_SET_NO":999,"REV_AT_EPOCH":28487,"BSTAR":0.00027063,"MEAN_MOTION_DOT":0.0002494,"MEAN_MOTION_DDOT":0},{"OBJECT_NAME":"SOYUZ-MS 28","OBJECT_ID":"2025-275A","EPOCH":"2026-04-24T15:38:15.753408","MEAN_MOTION":15.48932066,"ECCENTRICITY":0.0006889,"INCLINATION":51.632,"RA_OF_ASC_NODE":205.075,"ARG_OF_PERICENTER":346.1357,"MEAN_ANOMALY":13.9441,"EPHEMERIS_TYPE":0,"CLASSIFICATION_TYPE":"U","NORAD_CAT_ID":66664,"ELEMENT_SET_NO":999,"REV_AT_EPOCH":56372,"BSTAR":0.00017883,"MEAN_MOTION_DOT":9.395e-5,"MEAN_MOTION_DDOT":0},{"OBJECT_NAME":"DUPLEX","OBJECT_ID":"1998-067XS","EPOCH":"2026-04-24T12:29:15.477792","MEAN_MOTION":15.59064037,"ECCENTRICITY":0.0004669,"INCLINATION":51.6276,"RA_OF_ASC_NODE":199.6973,"ARG_OF_PERICENTER":337.6923,"MEAN_ANOMALY":22.3866,"EPHEMERIS_TYPE":0,"CLASSIFICATION_TYPE":"U","NORAD_CAT_ID":66906,"ELEMENT_SET_NO":999,"REV_AT_EPOCH":2227,"BSTAR":0.00033941,"MEAN_MOTION_DOT":0.00026585,"MEAN_MOTION_DDOT":0},{"OBJECT_NAME":"ISS OBJECT XT","OBJECT_ID":"1998-067XT","EPOCH":"2026-04-24T14:00:44.410176","MEAN_MOTION":15.93083615,"ECCENTRICITY":0.0012366,"INCLINATION":51.6177,"RA_OF_ASC_NODE":188.0043,"ARG_OF_PERICENTER":354.5534,"MEAN_ANOMALY":5.5337,"EPHEMERIS_TYPE":0,"CLASSIFICATION_TYPE":"U","NORAD_CAT_ID":66907,"ELEMENT_SET_NO":999,"REV_AT_EPOCH":2243,"BSTAR":0.0012224,"MEAN_MOTION_DOT":0.00440305,"MEAN_MOTION_DDOT":8.6756e-5},{"OBJECT_NAME":"ISS OBJECT XU","OBJECT_ID":"1998-067XU","EPOCH":"2026-04-24T13:44:42.717696","MEAN_MOTION":15.9375995,"ECCENTRICITY":0.0012156,"INCLINATION":51.6199,"RA_OF_ASC_NODE":187.9251,"ARG_OF_PERICENTER":352.7751,"MEAN_ANOMALY":7.3079,"EPHEMERIS_TYPE":0,"CLASSIFICATION_TYPE":"U","NORAD_CAT_ID":66908,"ELEMENT_SET_NO":999,"REV_AT_EPOCH":2243,"BSTAR":0.0012668,"MEAN_MOTION_DOT":0.00473009,"MEAN_MOTION_DDOT":9.97e-5},{"OBJECT_NAME":"ISS OBJECT XW","OBJECT_ID":"1998-067XW","EPOCH":"2026-04-24T10:49:38.102880","MEAN_MOTION":15.87821159,"ECCENTRICITY":0.0011389,"INCLINATION":51.6161,"RA_OF_ASC_NODE":189.3682,"ARG_OF_PERICENTER":349.349,"MEAN_ANOMALY":10.7272,"EPHEMERIS_TYPE":0,"CLASSIFICATION_TYPE":"U","NORAD_CAT_ID":66910,"ELEMENT_SET_NO":999,"REV_AT_EPOCH":2240,"BSTAR":0.0011119,"MEAN_MOTION_DOT":0.00318334,"MEAN_MOTION_DDOT":0}]
